IDEFIX & ARIANE 42P R/B 
1 27422U 02021B   25347.28248087  .00000524  00000+0  21562-3 0  9991
2 27422  98.5786 281.9663 0012945  82.2111 278.0541 14.30951234231660
AQUA                    
1 27424U 02022A   25347.32475433  .00001965  00000+0  40328-3 0  9997
2 27424  98.4037 308.2133 0001151 114.8190  47.6819 14.61812555256112
CZ-4B R/B               
1 27432U 02024C   25347.14013059  .00000087  00000+0  68242-4 0  9990
2 27432  98.8999  35.9104 0049171 268.7500 149.4003 14.14527883217008
MIDORI II (ADEOS-II)    
1 27597U 02056A   25347.13546269  .00000452  00000+0  19580-3 0  9996
2 27597  98.7636 300.0938 0000197 156.0216 204.0975 14.29206234197931
H-2A R/B                
1 27601U 02056E   25347.32978294  .00000618  00000+0  23102-3 0  9999
2 27601  98.3065 306.0629 0071361  59.4054 110.0483 14.33677243201730
CZ-4B R/B               
1 28059U 03049C   25347.21458300  .00000617  00000+0  15308-3 0  9997
2 28059  98.6789 333.7964 0049013 134.6673 225.8534 14.54910029174023
CZ-2C R/B               
1 28222U 04012C   25347.31844820  .00058301  00000+0  84284-3 0  9999
2 28222  97.7427  39.9873 0016481 268.1444  91.7922 15.55588251190816
SL-16 R/B               
1 28353U 04021B   25347.32865353 -.00000226  00000+0 -92716-4 0  9994
2 28353  71.0016  53.7297 0005257 199.4645 160.6278 14.14580466110627
CZ-4B R/B               
1 28415U 04035C   25347.08549528  .00012075  00000+0  44647-3 0  9996
2 28415  97.3616  17.4248 0031531 276.2169  83.5478 15.27380280166684
CZ-2C R/B               
1 28480U 04046B   25347.30955786  .00000360  00000+0  14857-3 0  9996
2 28480  98.1990 262.6520 0140468  50.6351 310.7178 14.26941552 96186
ARIANE 5 R/B            
1 28499U 04049H   25347.32636661  .00001761  00000+0  20128-3 0  9993
2 28499  98.2521 147.6286 0083320 271.0440  88.1229 14.85014624132976
CZ-2D R/B               
1 28738U 05024B   25346.97965609  .00037949  00000+0  60334-3 0  9990
2 28738  97.3643 354.4325 0005495   5.0180 355.1128 15.53207641126294
