CCSDS_OMM_VERS = 2.0
CREATION_DATE  = 
ORIGINATOR     = 

OBJECT_NAME    = IDEFIX & ARIANE 42P R/B
OBJECT_ID      = 2002-021B
CENTER_NAME    = EARTH
REF_FRAME      = TEME
TIME_SYSTEM    = UTC
MEAN_ELEMENT_THEORY = SGP/SGP4

EPOCH          = 2025-12-13T06:46:46.347168
MEAN_MOTION    = 14.30951234
ECCENTRICITY   = .00129454
INCLINATION    = 98.5786
RA_OF_ASC_NODE = 281.9663
ARG_OF_PERICENTER = 82.2111
MEAN_ANOMALY   = 278.0541

EPHEMERIS_TYPE = 0
CLASSIFICATION_TYPE = U
NORAD_CAT_ID   = 27422
ELEMENT_SET_NO = 999
REV_AT_EPOCH   = 23166
BSTAR          = .21561924E-3
MEAN_MOTION_DOT = .524E-5
MEAN_MOTION_DDOT = 0

CCSDS_OMM_VERS = 2.0
CREATION_DATE  = 
ORIGINATOR     = 

OBJECT_NAME    = AQUA
OBJECT_ID      = 2002-022A
CENTER_NAME    = EARTH
REF_FRAME      = TEME
TIME_SYSTEM    = UTC
MEAN_ELEMENT_THEORY = SGP/SGP4

EPOCH          = 2025-12-13T07:47:38.774112
MEAN_MOTION    = 14.61812555
ECCENTRICITY   = .00011513
INCLINATION    = 98.4037
RA_OF_ASC_NODE = 308.2133
ARG_OF_PERICENTER = 114.8190
MEAN_ANOMALY   = 47.6819

EPHEMERIS_TYPE = 0
CLASSIFICATION_TYPE = U
NORAD_CAT_ID   = 27424
ELEMENT_SET_NO = 999
REV_AT_EPOCH   = 25611
BSTAR          = .40327894E-3
MEAN_MOTION_DOT = .1965E-4
MEAN_MOTION_DDOT = 0

CCSDS_OMM_VERS = 2.0
CREATION_DATE  = 
ORIGINATOR     = 

OBJECT_NAME    = CZ-4B R/B
OBJECT_ID      = 2002-024C
CENTER_NAME    = EARTH
REF_FRAME      = TEME
TIME_SYSTEM    = UTC
MEAN_ELEMENT_THEORY = SGP/SGP4

EPOCH          = 2025-12-13T03:21:47.282976
MEAN_MOTION    = 14.14527883
ECCENTRICITY   = .00491716
INCLINATION    = 98.8999
RA_OF_ASC_NODE = 35.9104
ARG_OF_PERICENTER = 268.7500
MEAN_ANOMALY   = 149.4003

EPHEMERIS_TYPE = 0
CLASSIFICATION_TYPE = U
NORAD_CAT_ID   = 27432
ELEMENT_SET_NO = 999
REV_AT_EPOCH   = 21700
BSTAR          = .68242081E-4
MEAN_MOTION_DOT = .87E-6
MEAN_MOTION_DDOT = 0

CCSDS_OMM_VERS = 2.0
CREATION_DATE  = 
ORIGINATOR     = 

OBJECT_NAME    = MIDORI II (ADEOS-II)
OBJECT_ID      = 2002-056A
CENTER_NAME    = EARTH
REF_FRAME      = TEME
TIME_SYSTEM    = UTC
MEAN_ELEMENT_THEORY = SGP/SGP4

EPOCH          = 2025-12-13T03:15:03.976416
MEAN_MOTION    = 14.29206234
ECCENTRICITY   = .00001979
INCLINATION    = 98.7636
RA_OF_ASC_NODE = 300.0938
ARG_OF_PERICENTER = 156.0216
MEAN_ANOMALY   = 204.0975

EPHEMERIS_TYPE = 0
CLASSIFICATION_TYPE = U
NORAD_CAT_ID   = 27597
ELEMENT_SET_NO = 999
REV_AT_EPOCH   = 19793
BSTAR          = .19579797E-3
MEAN_MOTION_DOT = .452E-5
MEAN_MOTION_DDOT = 0

CCSDS_OMM_VERS = 2.0
CREATION_DATE  = 
ORIGINATOR     = 

OBJECT_NAME    = H-2A R/B
OBJECT_ID      = 2002-056E
CENTER_NAME    = EARTH
REF_FRAME      = TEME
TIME_SYSTEM    = UTC
MEAN_ELEMENT_THEORY = SGP/SGP4

EPOCH          = 2025-12-13T07:54:53.246016
MEAN_MOTION    = 14.33677243
ECCENTRICITY   = .00713614
INCLINATION    = 98.3065
RA_OF_ASC_NODE = 306.0629
ARG_OF_PERICENTER = 59.4054
MEAN_ANOMALY   = 110.0483

EPHEMERIS_TYPE = 0
CLASSIFICATION_TYPE = U
NORAD_CAT_ID   = 27601
ELEMENT_SET_NO = 999
REV_AT_EPOCH   = 20173
BSTAR          = .23101702E-3
MEAN_MOTION_DOT = .618E-5
MEAN_MOTION_DDOT = 0

CCSDS_OMM_VERS = 2.0
CREATION_DATE  = 
ORIGINATOR     = 

OBJECT_NAME    = CZ-4B R/B
OBJECT_ID      = 2003-049C
CENTER_NAME    = EARTH
REF_FRAME      = TEME
TIME_SYSTEM    = UTC
MEAN_ELEMENT_THEORY = SGP/SGP4

EPOCH          = 2025-12-13T05:08:59.971200
MEAN_MOTION    = 14.54910029
ECCENTRICITY   = .00490137
INCLINATION    = 98.6789
RA_OF_ASC_NODE = 333.7964
ARG_OF_PERICENTER = 134.6673
MEAN_ANOMALY   = 225.8534

EPHEMERIS_TYPE = 0
CLASSIFICATION_TYPE = U
NORAD_CAT_ID   = 28059
ELEMENT_SET_NO = 999
REV_AT_EPOCH   = 17402
BSTAR          = .15307782E-3
MEAN_MOTION_DOT = .617E-5
MEAN_MOTION_DDOT = 0

CCSDS_OMM_VERS = 2.0
CREATION_DATE  = 
ORIGINATOR     = 

OBJECT_NAME    = CZ-2C R/B
OBJECT_ID      = 2004-012C
CENTER_NAME    = EARTH
REF_FRAME      = TEME
TIME_SYSTEM    = UTC
MEAN_ELEMENT_THEORY = SGP/SGP4

EPOCH          = 2025-12-13T07:38:33.924480
MEAN_MOTION    = 15.55588251
ECCENTRICITY   = .00164815
INCLINATION    = 97.7427
RA_OF_ASC_NODE = 39.9873
ARG_OF_PERICENTER = 268.1444
MEAN_ANOMALY   = 91.7922

EPHEMERIS_TYPE = 0
CLASSIFICATION_TYPE = U
NORAD_CAT_ID   = 28222
ELEMENT_SET_NO = 999
REV_AT_EPOCH   = 19081
BSTAR          = .84283617E-3
MEAN_MOTION_DOT = .58301E-3
MEAN_MOTION_DDOT = 0

CCSDS_OMM_VERS = 2.0
CREATION_DATE  = 
ORIGINATOR     = 

OBJECT_NAME    = SL-16 R/B
OBJECT_ID      = 2004-021B
CENTER_NAME    = EARTH
REF_FRAME      = TEME
TIME_SYSTEM    = UTC
MEAN_ELEMENT_THEORY = SGP/SGP4

EPOCH          = 2025-12-13T07:53:15.664992
MEAN_MOTION    = 14.14580466
ECCENTRICITY   = .00052578
INCLINATION    = 71.0016
RA_OF_ASC_NODE = 53.7297
ARG_OF_PERICENTER = 199.4645
MEAN_ANOMALY   = 160.6278

EPHEMERIS_TYPE = 0
CLASSIFICATION_TYPE = U
NORAD_CAT_ID   = 28353
ELEMENT_SET_NO = 999
REV_AT_EPOCH   = 11062
BSTAR          = -.92715654E-4
MEAN_MOTION_DOT = -.226E-5
MEAN_MOTION_DDOT = 0

CCSDS_OMM_VERS = 2.0
CREATION_DATE  = 
ORIGINATOR     = 

OBJECT_NAME    = CZ-4B R/B
OBJECT_ID      = 2004-035C
CENTER_NAME    = EARTH
REF_FRAME      = TEME
TIME_SYSTEM    = UTC
MEAN_ELEMENT_THEORY = SGP/SGP4

EPOCH          = 2025-12-13T02:03:06.792192
MEAN_MOTION    = 15.27380280
ECCENTRICITY   = .00315318
INCLINATION    = 97.3616
RA_OF_ASC_NODE = 17.4248
ARG_OF_PERICENTER = 276.2169
MEAN_ANOMALY   = 83.5478

EPHEMERIS_TYPE = 0
CLASSIFICATION_TYPE = U
NORAD_CAT_ID   = 28415
ELEMENT_SET_NO = 999
REV_AT_EPOCH   = 16668
BSTAR          = .44647494E-3
MEAN_MOTION_DOT = .12075E-3
MEAN_MOTION_DDOT = 0

CCSDS_OMM_VERS = 2.0
CREATION_DATE  = 
ORIGINATOR     = 

OBJECT_NAME    = CZ-2C R/B
OBJECT_ID      = 2004-046B
CENTER_NAME    = EARTH
REF_FRAME      = TEME
TIME_SYSTEM    = UTC
MEAN_ELEMENT_THEORY = SGP/SGP4

EPOCH          = 2025-12-13T07:25:45.799104
MEAN_MOTION    = 14.26941552
ECCENTRICITY   = .01404681
INCLINATION    = 98.1990
RA_OF_ASC_NODE = 262.6520
ARG_OF_PERICENTER = 50.6351
MEAN_ANOMALY   = 310.7178

EPHEMERIS_TYPE = 0
CLASSIFICATION_TYPE = U
NORAD_CAT_ID   = 28480
ELEMENT_SET_NO = 999
REV_AT_EPOCH   = 9618
BSTAR          = .14856759E-3
MEAN_MOTION_DOT = .36E-5
MEAN_MOTION_DDOT = 0

CCSDS_OMM_VERS = 2.0
CREATION_DATE  = 
ORIGINATOR     = 

OBJECT_NAME    = ARIANE 5 R/B
OBJECT_ID      = 2004-049H
CENTER_NAME    = EARTH
REF_FRAME      = TEME
TIME_SYSTEM    = UTC
MEAN_ELEMENT_THEORY = SGP/SGP4

EPOCH          = 2025-12-13T07:49:58.075104
MEAN_MOTION    = 14.85014624
ECCENTRICITY   = .00833206
INCLINATION    = 98.2521
RA_OF_ASC_NODE = 147.6286
ARG_OF_PERICENTER = 271.0440
MEAN_ANOMALY   = 88.1229

EPHEMERIS_TYPE = 0
CLASSIFICATION_TYPE = U
NORAD_CAT_ID   = 28499
ELEMENT_SET_NO = 999
REV_AT_EPOCH   = 13297
BSTAR          = .2012839E-3
MEAN_MOTION_DOT = .1761E-4
MEAN_MOTION_DDOT = 0

CCSDS_OMM_VERS = 2.0
CREATION_DATE  = 
ORIGINATOR     = 

OBJECT_NAME    = CZ-2D R/B
OBJECT_ID      = 2005-024B
CENTER_NAME    = EARTH
REF_FRAME      = TEME
TIME_SYSTEM    = UTC
MEAN_ELEMENT_THEORY = SGP/SGP4

EPOCH          = 2025-12-12T23:30:42.286176
MEAN_MOTION    = 15.53207641
ECCENTRICITY   = .0005495
INCLINATION    = 97.3643
RA_OF_ASC_NODE = 354.4325
ARG_OF_PERICENTER = 5.0180
MEAN_ANOMALY   = 355.1128

EPHEMERIS_TYPE = 0
CLASSIFICATION_TYPE = U
NORAD_CAT_ID   = 28738
ELEMENT_SET_NO = 999
REV_AT_EPOCH   = 12629
BSTAR          = .60334381E-3
MEAN_MOTION_DOT = .37949E-3
MEAN_MOTION_DDOT = 0

